{"type": "FeatureCollection", "features": [ {"type": "Feature", "properties": {"norad_id": 31024, "name": "FENGYUN 1C DEB", "group": "fengyun-1c-debris", "lat": 45.764683537173426, "lon": 104.74135296244674, "alt_km": 783.8795596585787, "timestamp": "2025-12-27T15:27:11.470809+00:00", "meta": {"OBJECT_NAME": "FENGYUN 1C DEB", "OBJECT_ID": "1999-025BDS", "EPOCH": "2025-12-25T12:08:00.060864", "MEAN_MOTION": 14.20874819, "ECCENTRICITY": 0.0075452, "INCLINATION": 99.0429, "RA_OF_ASC_NODE": 273.1402, "ARG_OF_PERICENTER": 88.574, "MEAN_ANOMALY": 272.4078, "EPHEMERIS_TYPE": 0, "CLASSIFICATION_TYPE": "U", "NORAD_CAT_ID": 31024, "ELEMENT_SET_NO": 999, "REV_AT_EPOCH": 96885, "BSTAR": 0.00029224, "MEAN_MOTION_DOT": 6.05e-06, "MEAN_MOTION_DDOT": 0}, "tle": {"line1": "1 31024U 99025BDS 25359.50555626  .00000605  00000+0  29224-3 0  9995", "line2": "2 31024  99.0429 273.1402 0075452  88.5740 272.4078 14.20874819968859"}}, "geometry": {"type": "Point", "coordinates": [104.74135296244674, 45.764683537173426]}}, {"type": "Feature", "properties": {"norad_id": 31025, "name": "FENGYUN 1C DEB", "group": "fengyun-1c-debris", "lat": -48.31813786927941, "lon": 1.1654605490117558, "alt_km": 711.458356595389, "timestamp": "2025-12-27T15:27:11.470820+00:00", "meta": {"OBJECT_NAME": "FENGYUN 1C DEB", "OBJECT_ID": "1999-025BDT", "EPOCH": "2025-12-07T05:28:07.771008", "MEAN_MOTION": 14.20521805, "ECCENTRICITY": 0.01734931, "INCLINATION": 98.58, "RA_OF_ASC_NODE": 331.5793, "ARG_OF_PERICENTER": 28.741, "MEAN_ANOMALY": 332.3194, "EPHEMERIS_TYPE": 0, "CLASSIFICATION_TYPE": "U", "NORAD_CAT_ID": 31025, "ELEMENT_SET_NO": 999, "REV_AT_EPOCH": 64287, "BSTAR": 0.0012507545, "MEAN_MOTION_DOT": 3.084e-05, "MEAN_MOTION_DDOT": 0}, "tle": {"line1": "1 31025U 99025BDT 25341.22786772  .00003084  00000+0  12508-2 0  9994", "line2": "2 31025  98.5800 331.5793 0173493  28.7410 332.3194 14.20521805642873"}}, "geometry": {"type": "Point", "coordinates": [1.1654605490117558, -48.31813786927941]}}, {"type": "Feature", "properties": {"norad_id": 31026, "name": "FENGYUN 1C DEB", "group": "fengyun-1c-debris", "lat": 56.34305381192609, "lon": 129.6400476935773, "alt_km": 852.9992655280439, "timestamp": "2025-12-27T15:27:11.470830+00:00", "meta": {"OBJECT_NAME": "FENGYUN 1C DEB", "OBJECT_ID": "1999-025BDU", "EPOCH": "2025-12-27T02:47:51.710208", "MEAN_MOTION": 13.83404891, "ECCENTRICITY": 0.01349748, "INCLINATION": 98.7805, "RA_OF_ASC_NODE": 295.7256, "ARG_OF_PERICENTER": 143.5504, "MEAN_ANOMALY": 234.8027, "EPHEMERIS_TYPE": 0, "CLASSIFICATION_TYPE": "U", "NORAD_CAT_ID": 31026, "ELEMENT_SET_NO": 999, "REV_AT_EPOCH": 68225, "BSTAR": 0.00019990012, "MEAN_MOTION_DOT": 1.97e-06, "MEAN_MOTION_DDOT": 0}, "tle": {"line1": "1 31026U 99025BDU 25361.11657072  .00000197  00000+0  19990-3 0  9990", "line2": "2 31026  98.7805 295.7256 0134974 143.5504 234.8027 13.83404891682257"}}, "geometry": {"type": "Point", "coordinates": [129.6400476935773, 56.34305381192609]}}, {"type": "Feature", "properties": {"norad_id": 31028, "name": "FENGYUN 1C DEB", "group": "fengyun-1c-debris", "lat": 73.11367332666002, "lon": -97.78817692168037, "alt_km": 1044.7439951287906, "timestamp": "2025-12-27T15:27:11.470840+00:00", "meta": {"OBJECT_NAME": "FENGYUN 1C DEB", "OBJECT_ID": "1999-025BDW", "EPOCH": "2025-12-25T00:50:54.506976", "MEAN_MOTION": 13.89080834, "ECCENTRICITY": 0.01641634, "INCLINATION": 98.7065, "RA_OF_ASC_NODE": 290.0897, "ARG_OF_PERICENTER": 260.5162, "MEAN_ANOMALY": 97.7411, "EPHEMERIS_TYPE": 0, "CLASSIFICATION_TYPE": "U", "NORAD_CAT_ID": 31028, "ELEMENT_SET_NO": 999, "REV_AT_EPOCH": 62174, "BSTAR": 0.00025878519, "MEAN_MOTION_DOT": 3.08e-06, "MEAN_MOTION_DDOT": 0}, "tle": {"line1": "1 31028U 99025BDW 25359.03535309  .00000308  00000+0  25879-3 0  9995", "line2": "2 31028  98.7065 290.0897 0164163 260.5162  97.7411 13.89080834621742"}}, "geometry": {"type": "Point", "coordinates": [-97.78817692168037, 73.11367332666002]}}, {"type": "Feature", "properties": {"norad_id": 31029, "name": "FENGYUN 1C DEB", "group": "fengyun-1c-debris", "lat": -77.37310521074616, "lon": 34.79357064443786, "alt_km": 825.1452282041864, "timestamp": "2025-12-27T15:27:11.470850+00:00", "meta": {"OBJECT_NAME": "FENGYUN 1C DEB", "OBJECT_ID": "1999-025BDX", "EPOCH": "2025-12-27T04:53:35.249280", "MEAN_MOTION": 14.34352906, "ECCENTRICITY": 0.00898595, "INCLINATION": 98.8586, "RA_OF_ASC_NODE": 258.4635, "ARG_OF_PERICENTER": 31.8152, "MEAN_ANOMALY": 119.1958, "EPHEMERIS_TYPE": 0, "CLASSIFICATION_TYPE": "U", "NORAD_CAT_ID": 31029, "ELEMENT_SET_NO": 999, "REV_AT_EPOCH": 98003, "BSTAR": 0.00043024343, "MEAN_MOTION_DOT": 1.219e-05, "MEAN_MOTION_DDOT": 0}, "tle": {"line1": "1 31029U 99025BDX 25361.20388020  .00001219  00000+0  43024-3 0  9998", "line2": "2 31029  98.8586 258.4635 0089859  31.8152 119.1958 14.34352906980034"}}, "geometry": {"type": "Point", "coordinates": [34.79357064443786, -77.37310521074616]}}, {"type": "Feature", "properties": {"norad_id": 31030, "name": "FENGYUN 1C DEB", "group": "fengyun-1c-debris", "lat": -52.223109407350314, "lon": -127.96841182937, "alt_km": 838.7429103009272, "timestamp": "2025-12-27T15:27:11.470860+00:00", "meta": {"OBJECT_NAME": "FENGYUN 1C DEB", "OBJECT_ID": "1999-025BDY", "EPOCH": "2025-12-26T03:04:59.043360", "MEAN_MOTION": 14.23723884, "ECCENTRICITY": 0.00270514, "INCLINATION": 98.7657, "RA_OF_ASC_NODE": 62.0048, "ARG_OF_PERICENTER": 45.7714, "MEAN_ANOMALY": 344.5393, "EPHEMERIS_TYPE": 0, "CLASSIFICATION_TYPE": "U", "NORAD_CAT_ID": 31030, "ELEMENT_SET_NO": 999, "REV_AT_EPOCH": 96895, "BSTAR": 0.00084198854, "MEAN_MOTION_DOT": 1.886e-05, "MEAN_MOTION_DDOT": 0}, "tle": {"line1": "1 31030U 99025BDY 25360.12846115  .00001886  00000+0  84199-3 0  9992", "line2": "2 31030  98.7657  62.0048 0027051  45.7714 344.5393 14.23723884968954"}}, "geometry": {"type": "Point", "coordinates": [-127.96841182937, -52.223109407350314]}}, {"type": "Feature", "properties": {"norad_id": 31031, "name": "FENGYUN 1C DEB", "group": "fengyun-1c-debris", "lat": 80.8650824106147, "lon": -177.30568200738827, "alt_km": 802.0218690454867, "timestamp": "2025-12-27T15:27:11.470870+00:00", "meta": {"OBJECT_NAME": "FENGYUN 1C DEB", "OBJECT_ID": "1999-025BDZ", "EPOCH": "2025-12-24T00:55:32.714976", "MEAN_MOTION": 14.2100357, "ECCENTRICITY": 0.00282093, "INCLINATION": 99.0724, "RA_OF_ASC_NODE": 275.4423, "ARG_OF_PERICENTER": 153.5984, "MEAN_ANOMALY": 224.558, "EPHEMERIS_TYPE": 0, "CLASSIFICATION_TYPE": "U", "NORAD_CAT_ID": 31031, "ELEMENT_SET_NO": 999, "REV_AT_EPOCH": 97015, "BSTAR": 0.00038521203, "MEAN_MOTION_DOT": 7.92e-06, "MEAN_MOTION_DDOT": 0}, "tle": {"line1": "1 31031U 99025BDZ 25358.03857309  .00000792  00000+0  38521-3 0  9990", "line2": "2 31031  99.0724 275.4423 0028209 153.5984 224.5580 14.21003570970155"}}, "geometry": {"type": "Point", "coordinates": [-177.30568200738827, 80.8650824106147]}}, {"type": "Feature", "properties": {"norad_id": 31032, "name": "FENGYUN 1C DEB", "group": "fengyun-1c-debris", "lat": -6.323987392088067, "lon": -170.11875080826985, "alt_km": 802.465758989717, "timestamp": "2025-12-27T15:27:11.470880+00:00", "meta": {"OBJECT_NAME": "FENGYUN 1C DEB", "OBJECT_ID": "1999-025BEA", "EPOCH": "2025-12-27T06:38:47.553792", "MEAN_MOTION": 14.0226171, "ECCENTRICITY": 0.01391651, "INCLINATION": 99.3999, "RA_OF_ASC_NODE": 10.5548, "ARG_OF_PERICENTER": 156.4335, "MEAN_ANOMALY": 337.6694, "EPHEMERIS_TYPE": 0, "CLASSIFICATION_TYPE": "U", "NORAD_CAT_ID": 31032, "ELEMENT_SET_NO": 999, "REV_AT_EPOCH": 95185, "BSTAR": 0.0015390125, "MEAN_MOTION_DOT": 2.521e-05, "MEAN_MOTION_DDOT": 0}, "tle": {"line1": "1 31032U 99025BEA 25361.27693928  .00002521  00000+0  15390-2 0  9996", "line2": "2 31032  99.3999  10.5548 0139165 156.4335 337.6694 14.02261710951854"}}, "geometry": {"type": "Point", "coordinates": [-170.11875080826985, -6.323987392088067]}}, {"type": "Feature", "properties": {"norad_id": 31033, "name": "FENGYUN 1C DEB", "group": "fengyun-1c-debris", "lat": 28.010039465667504, "lon": 163.99064085443132, "alt_km": 786.8633699060865, "timestamp": "2025-12-27T15:27:11.470891+00:00", "meta": {"OBJECT_NAME": "FENGYUN 1C DEB", "OBJECT_ID": "1999-025BEB", "EPOCH": "2025-12-27T04:43:08.488992", "MEAN_MOTION": 14.27469868, "ECCENTRICITY": 0.01541489, "INCLINATION": 98.44, "RA_OF_ASC_NODE": 339.0287, "ARG_OF_PERICENTER": 68.2582, "MEAN_ANOMALY": 304.4521, "EPHEMERIS_TYPE": 0, "CLASSIFICATION_TYPE": "U", "NORAD_CAT_ID": 31033, "ELEMENT_SET_NO": 999, "REV_AT_EPOCH": 97552, "BSTAR": 0.00027760345, "MEAN_MOTION_DOT": 7.3e-06, "MEAN_MOTION_DDOT": 0}, "tle": {"line1": "1 31033U 99025BEB 25361.19662603  .00000730  00000+0  27760-3 0  9999", "line2": "2 31033  98.4400 339.0287 0154148  68.2582 304.4521 14.27469868975525"}}, "geometry": {"type": "Point", "coordinates": [163.99064085443132, 28.010039465667504]}}, {"type": "Feature", "properties": {"norad_id": 31036, "name": "FENGYUN 1C DEB", "group": "fengyun-1c-debris", "lat": 38.10579648817207, "lon": 101.87631783144583, "alt_km": 823.6854714507599, "timestamp": "2025-12-27T15:27:11.470901+00:00", "meta": {"OBJECT_NAME": "FENGYUN 1C DEB", "OBJECT_ID": "1999-025BEE", "EPOCH": "2025-12-26T13:03:16.180128", "MEAN_MOTION": 14.49102873, "ECCENTRICITY": 0.0137836, "INCLINATION": 98.9152, "RA_OF_ASC_NODE": 107.7859, "ARG_OF_PERICENTER": 222.8976, "MEAN_ANOMALY": 200.9574, "EPHEMERIS_TYPE": 0, "CLASSIFICATION_TYPE": "U", "NORAD_CAT_ID": 31036, "ELEMENT_SET_NO": 999, "REV_AT_EPOCH": 57507, "BSTAR": 0.00029589, "MEAN_MOTION_DOT": 1.211e-05, "MEAN_MOTION_DDOT": 0}, "tle": {"line1": "1 31036U 99025BEE 25360.54393727  .00001211  00000+0  29589-3 0  9994", "line2": "2 31036  98.9152 107.7859 0137836 222.8976 200.9574 14.49102873575070"}}, "geometry": {"type": "Point", "coordinates": [101.87631783144583, 38.10579648817207]}}]}